{"type": "FeatureCollection", "features": [ {"type": "Feature", "properties": {"norad_id": 31255, "name": "FENGYUN 1C DEB", "group": "fengyun-1c-debris", "lat": -21.338486960181797, "lon": -6.426000030246866, "alt_km": 913.9086607142344, "timestamp": "2025-12-25T16:53:14.944830+00:00", "meta": {"OBJECT_NAME": "FENGYUN 1C DEB", "OBJECT_ID": "1999-025BMM", "EPOCH": "2025-12-23T11:06:19.382976", "MEAN_MOTION": 14.09743921, "ECCENTRICITY": 0.02703562, "INCLINATION": 99.3085, "RA_OF_ASC_NODE": 174.9282, "ARG_OF_PERICENTER": 313.5957, "MEAN_ANOMALY": 44.3057, "EPHEMERIS_TYPE": 0, "CLASSIFICATION_TYPE": "U", "NORAD_CAT_ID": 31255, "ELEMENT_SET_NO": 999, "REV_AT_EPOCH": 96952, "BSTAR": 0.00028400087, "MEAN_MOTION_DOT": 6.46e-06, "MEAN_MOTION_DDOT": 0}, "tle": {"line1": "1 31255U 99025BMM 25357.46272434  .00000646  00000+0  28400-3 0  9997", "line2": "2 31255  99.3085 174.9282 0270356 313.5957  44.3057 14.09743921969525"}}, "geometry": {"type": "Point", "coordinates": [-6.426000030246866, -21.338486960181797]}}, {"type": "Feature", "properties": {"norad_id": 31256, "name": "FENGYUN 1C DEB", "group": "fengyun-1c-debris", "lat": 41.16556531657994, "lon": 34.46912570413842, "alt_km": 763.7081622161286, "timestamp": "2025-12-25T16:53:14.944840+00:00", "meta": {"OBJECT_NAME": "FENGYUN 1C DEB", "OBJECT_ID": "1999-025BMN", "EPOCH": "2025-12-24T12:53:06.488160", "MEAN_MOTION": 14.03401904, "ECCENTRICITY": 0.03085446, "INCLINATION": 98.6795, "RA_OF_ASC_NODE": 205.6783, "ARG_OF_PERICENTER": 80.7852, "MEAN_ANOMALY": 282.8074, "EPHEMERIS_TYPE": 0, "CLASSIFICATION_TYPE": "U", "NORAD_CAT_ID": 31256, "ELEMENT_SET_NO": 999, "REV_AT_EPOCH": 65147, "BSTAR": 0.0022018185, "MEAN_MOTION_DOT": 5.216e-05, "MEAN_MOTION_DDOT": 0}, "tle": {"line1": "1 31256U 99025BMN 25358.53688065  .00005216  00000+0  22018-2 0  9994", "line2": "2 31256  98.6795 205.6783 0308544  80.7852 282.8074 14.03401904651478"}}, "geometry": {"type": "Point", "coordinates": [34.46912570413842, 41.16556531657994]}}, {"type": "Feature", "properties": {"norad_id": 31258, "name": "FENGYUN 1C DEB", "group": "fengyun-1c-debris", "lat": 42.208248319927655, "lon": 142.56935768299692, "alt_km": 511.76392831242356, "timestamp": "2025-12-25T16:53:14.944851+00:00", "meta": {"OBJECT_NAME": "FENGYUN 1C DEB", "OBJECT_ID": "1999-025BMQ", "EPOCH": "2025-12-24T09:10:00.892992", "MEAN_MOTION": 15.16490978, "ECCENTRICITY": 0.00080756, "INCLINATION": 98.8459, "RA_OF_ASC_NODE": 149.1496, "ARG_OF_PERICENTER": 313.0592, "MEAN_ANOMALY": 77.2455, "EPHEMERIS_TYPE": 0, "CLASSIFICATION_TYPE": "U", "NORAD_CAT_ID": 31258, "ELEMENT_SET_NO": 999, "REV_AT_EPOCH": 97287, "BSTAR": 0.010968771, "MEAN_MOTION_DOT": 0.00220131, "MEAN_MOTION_DDOT": 0}, "tle": {"line1": "1 31258U 99025BMQ 25358.38195478  .00220131  00000+0  10969-1 0  9996", "line2": "2 31258  98.8459 149.1496 0008075 313.0592  77.2455 15.16490978972874"}}, "geometry": {"type": "Point", "coordinates": [142.56935768299692, 42.208248319927655]}}, {"type": "Feature", "properties": {"norad_id": 31259, "name": "FENGYUN 1C DEB", "group": "fengyun-1c-debris", "lat": -18.240919482171314, "lon": 82.02300747057981, "alt_km": 894.3952954176548, "timestamp": "2025-12-25T16:53:14.944861+00:00", "meta": {"OBJECT_NAME": "FENGYUN 1C DEB", "OBJECT_ID": "1999-025BMR", "EPOCH": "2025-12-25T05:12:49.942080", "MEAN_MOTION": 14.15102186, "ECCENTRICITY": 0.00657959, "INCLINATION": 99.0084, "RA_OF_ASC_NODE": 78.5351, "ARG_OF_PERICENTER": 161.705, "MEAN_ANOMALY": 223.421, "EPHEMERIS_TYPE": 0, "CLASSIFICATION_TYPE": "U", "NORAD_CAT_ID": 31259, "ELEMENT_SET_NO": 999, "REV_AT_EPOCH": 95746, "BSTAR": 0.0017412021, "MEAN_MOTION_DOT": 3.404e-05, "MEAN_MOTION_DDOT": 0}, "tle": {"line1": "1 31259U 99025BMR 25359.21724470  .00003404  00000+0  17412-2 0  9993", "line2": "2 31259  99.0084  78.5351 0065795 161.7050 223.4210 14.15102186957467"}}, "geometry": {"type": "Point", "coordinates": [82.02300747057981, -18.240919482171314]}}, {"type": "Feature", "properties": {"norad_id": 31260, "name": "FENGYUN 1C DEB", "group": "fengyun-1c-debris", "lat": -16.663526365416264, "lon": -100.13575759114475, "alt_km": 774.3145681951128, "timestamp": "2025-12-25T16:53:14.944871+00:00", "meta": {"OBJECT_NAME": "FENGYUN 1C DEB", "OBJECT_ID": "1999-025BMS", "EPOCH": "2025-12-24T16:01:52.760928", "MEAN_MOTION": 14.36490974, "ECCENTRICITY": 0.00463688, "INCLINATION": 98.9566, "RA_OF_ASC_NODE": 256.0821, "ARG_OF_PERICENTER": 257.0576, "MEAN_ANOMALY": 132.8353, "EPHEMERIS_TYPE": 0, "CLASSIFICATION_TYPE": "U", "NORAD_CAT_ID": 31260, "ELEMENT_SET_NO": 999, "REV_AT_EPOCH": 97365, "BSTAR": 0.00098697525, "MEAN_MOTION_DOT": 2.885e-05, "MEAN_MOTION_DDOT": 0}, "tle": {"line1": "1 31260U 99025BMS 25358.66797177  .00002885  00000+0  98698-3 0  9995", "line2": "2 31260  98.9566 256.0821 0046368 257.0576 132.8353 14.36490974973652"}}, "geometry": {"type": "Point", "coordinates": [-100.13575759114475, -16.663526365416264]}}, {"type": "Feature", "properties": {"norad_id": 31261, "name": "FENGYUN 1C DEB", "group": "fengyun-1c-debris", "lat": 11.102174604787917, "lon": 135.57933108353225, "alt_km": 726.9528452569803, "timestamp": "2025-12-25T16:53:14.944881+00:00", "meta": {"OBJECT_NAME": "FENGYUN 1C DEB", "OBJECT_ID": "1999-025BMT", "EPOCH": "2025-12-24T08:25:24.983904", "MEAN_MOTION": 14.40147806, "ECCENTRICITY": 0.00502062, "INCLINATION": 99.0172, "RA_OF_ASC_NODE": 312.3699, "ARG_OF_PERICENTER": 198.0059, "MEAN_ANOMALY": 161.935, "EPHEMERIS_TYPE": 0, "CLASSIFICATION_TYPE": "U", "NORAD_CAT_ID": 31261, "ELEMENT_SET_NO": 999, "REV_AT_EPOCH": 97517, "BSTAR": 0.00092763496, "MEAN_MOTION_DOT": 2.926e-05, "MEAN_MOTION_DDOT": 0}, "tle": {"line1": "1 31261U 99025BMT 25358.35098361  .00002926  00000+0  92763-3 0  9994", "line2": "2 31261  99.0172 312.3699 0050206 198.0059 161.9350 14.40147806975170"}}, "geometry": {"type": "Point", "coordinates": [135.57933108353225, 11.102174604787917]}}, {"type": "Feature", "properties": {"norad_id": 31262, "name": "FENGYUN 1C DEB", "group": "fengyun-1c-debris", "lat": -65.37694140687546, "lon": -116.8926366737945, "alt_km": 877.5976006684123, "timestamp": "2025-12-25T16:53:14.944891+00:00", "meta": {"OBJECT_NAME": "FENGYUN 1C DEB", "OBJECT_ID": "1999-025BMU", "EPOCH": "2025-12-23T04:36:31.658976", "MEAN_MOTION": 14.18250623, "ECCENTRICITY": 0.00545996, "INCLINATION": 99.0016, "RA_OF_ASC_NODE": 80.7949, "ARG_OF_PERICENTER": 68.7564, "MEAN_ANOMALY": 321.7706, "EPHEMERIS_TYPE": 0, "CLASSIFICATION_TYPE": "U", "NORAD_CAT_ID": 31262, "ELEMENT_SET_NO": 999, "REV_AT_EPOCH": 95857, "BSTAR": 0.0016102319, "MEAN_MOTION_DOT": 3.318e-05, "MEAN_MOTION_DDOT": 0}, "tle": {"line1": "1 31262U 99025BMU 25357.19203309  .00003318  00000+0  16102-2 0  9994", "line2": "2 31262  99.0016  80.7949 0054599  68.7564 321.7706 14.18250623958578"}}, "geometry": {"type": "Point", "coordinates": [-116.8926366737945, -65.37694140687546]}}, {"type": "Feature", "properties": {"norad_id": 31263, "name": "FENGYUN 1C DEB", "group": "fengyun-1c-debris", "lat": 79.56535324360314, "lon": 166.87959243695758, "alt_km": 90.23368746273354, "timestamp": "2025-12-25T16:53:14.944902+00:00", "meta": {"OBJECT_NAME": "FENGYUN 1C DEB", "OBJECT_ID": "1999-025BMV", "EPOCH": "2025-12-17T17:49:28.390944", "MEAN_MOTION": 15.68261869, "ECCENTRICITY": 0.00247871, "INCLINATION": 98.9827, "RA_OF_ASC_NODE": 277.2526, "ARG_OF_PERICENTER": 119.3199, "MEAN_ANOMALY": 241.0538, "EPHEMERIS_TYPE": 0, "CLASSIFICATION_TYPE": "U", "NORAD_CAT_ID": 31263, "ELEMENT_SET_NO": 999, "REV_AT_EPOCH": 97244, "BSTAR": 0.017261788, "MEAN_MOTION_DOT": 0.02239772, "MEAN_MOTION_DDOT": 0}, "tle": {"line1": "1 31263U 99025BMV 25351.74268971  .02239772  00000+0  17262-1 0  9990", "line2": "2 31263  98.9827 277.2526 0024787 119.3199 241.0538 15.68261869972443"}}, "geometry": {"type": "Point", "coordinates": [166.87959243695758, 79.56535324360314]}}, {"type": "Feature", "properties": {"norad_id": 31264, "name": "FENGYUN 1C DEB", "group": "fengyun-1c-debris", "lat": -56.44870118935552, "lon": 63.0320953305132, "alt_km": 837.4198065973269, "timestamp": "2025-12-25T16:53:14.944912+00:00", "meta": {"OBJECT_NAME": "FENGYUN 1C DEB", "OBJECT_ID": "1999-025BMW", "EPOCH": "2025-12-24T04:57:05.392224", "MEAN_MOTION": 14.18616159, "ECCENTRICITY": 8.256e-05, "INCLINATION": 99.115, "RA_OF_ASC_NODE": 255.5038, "ARG_OF_PERICENTER": 10.9988, "MEAN_ANOMALY": 143.8476, "EPHEMERIS_TYPE": 0, "CLASSIFICATION_TYPE": "U", "NORAD_CAT_ID": 31264, "ELEMENT_SET_NO": 999, "REV_AT_EPOCH": 96591, "BSTAR": 0.00055145062, "MEAN_MOTION_DOT": 1.096e-05, "MEAN_MOTION_DDOT": 0}, "tle": {"line1": "1 31264U 99025BMW 25358.20631241  .00001096  00000+0  55145-3 0  9991", "line2": "2 31264  99.1150 255.5038 0000825  10.9988 143.8476 14.18616159965916"}}, "geometry": {"type": "Point", "coordinates": [63.0320953305132, -56.44870118935552]}}, {"type": "Feature", "properties": {"norad_id": 31266, "name": "FENGYUN 1C DEB", "group": "fengyun-1c-debris", "lat": 78.69251916823085, "lon": -71.28330183604847, "alt_km": 899.4020799986392, "timestamp": "2025-12-25T16:53:14.944922+00:00", "meta": {"OBJECT_NAME": "FENGYUN 1C DEB", "OBJECT_ID": "1999-025BMY", "EPOCH": "2025-12-23T22:24:42.563808", "MEAN_MOTION": 14.22351404, "ECCENTRICITY": 0.0129574, "INCLINATION": 99.2592, "RA_OF_ASC_NODE": 341.5277, "ARG_OF_PERICENTER": 252.1619, "MEAN_ANOMALY": 134.4907, "EPHEMERIS_TYPE": 0, "CLASSIFICATION_TYPE": "U", "NORAD_CAT_ID": 31266, "ELEMENT_SET_NO": 999, "REV_AT_EPOCH": 97365, "BSTAR": 0.0002742, "MEAN_MOTION_DOT": 6.15e-06, "MEAN_MOTION_DDOT": 0}, "tle": {"line1": "1 31266U 99025BMY 25357.93382597  .00000615  00000+0  27420-3 0  9990", "line2": "2 31266  99.2592 341.5277 0129574 252.1619 134.4907 14.22351404973653"}}, "geometry": {"type": "Point", "coordinates": [-71.28330183604847, 78.69251916823085]}}]}